[
  {
    "OBJECT_NAME": "STARLINK-4010",
    "OBJECT_ID": "22062AJ",
    "EPOCH": "2025-11-11T00:54:24.575616",
    "MEAN_MOTION": 15.08832756,
    "ECCENTRICITY": 0.0001292,
    "INCLINATION": 53.2164,
    "RA_OF_ASC_NODE": 196.7705,
    "ARG_OF_PERICENTER": 76.6623,
    "MEAN_ANOMALY": 283.4513,
    "EPHEMERIS_TYPE": 0,
    "CLASSIFICATION_TYPE": "U",
    "NORAD_CAT_ID": 52862,
    "ELEMENT_SET_NO": 999,
    "REV_AT_EPOCH": 18801,
    "BSTAR": 0.00056053,
    "MEAN_MOTION_DOT": 8.642e-05,
    "MEAN_MOTION_DDOT": 0.0,
    "TLE_LINE1": "1 52862U 22062AJ  25315.03778444  .00008642  00000+0  56053-3 0  9999",
    "TLE_LINE2": "2 52862  53.2164 196.7705 0001292  76.6623 283.4513 15.08832756188014",
    "COMMENT": "Grouped by shell and plane from TLE"
  },
  {
    "OBJECT_NAME": "STARLINK-4270",
    "OBJECT_ID": "22062AK",
    "EPOCH": "2025-11-11T02:19:11.319456",
    "MEAN_MOTION": 15.08840502,
    "ECCENTRICITY": 0.0001582,
    "INCLINATION": 53.2171,
    "RA_OF_ASC_NODE": 196.5029,
    "ARG_OF_PERICENTER": 93.0515,
    "MEAN_ANOMALY": 267.0658,
    "EPHEMERIS_TYPE": 0,
    "CLASSIFICATION_TYPE": "U",
    "NORAD_CAT_ID": 52863,
    "ELEMENT_SET_NO": 999,
    "REV_AT_EPOCH": 18802,
    "BSTAR": 0.00016466,
    "MEAN_MOTION_DOT": 2.334e-05,
    "MEAN_MOTION_DDOT": 0.0,
    "TLE_LINE1": "1 52863U 22062AK  25315.09665879  .00002334  00000+0  16466-3 0  9999",
    "TLE_LINE2": "2 52863  53.2171 196.5029 0001582  93.0515 267.0658 15.08840502188022",
    "COMMENT": "Grouped by shell and plane from TLE"
  },
  {
    "OBJECT_NAME": "STARLINK-4267",
    "OBJECT_ID": "22062AL",
    "EPOCH": "2025-11-11T02:24:29.001024",
    "MEAN_MOTION": 15.08852033,
    "ECCENTRICITY": 0.000129,
    "INCLINATION": 53.2136,
    "RA_OF_ASC_NODE": 196.4911,
    "ARG_OF_PERICENTER": 76.1871,
    "MEAN_ANOMALY": 283.9265,
    "EPHEMERIS_TYPE": 0,
    "CLASSIFICATION_TYPE": "U",
    "NORAD_CAT_ID": 52864,
    "ELEMENT_SET_NO": 999,
    "REV_AT_EPOCH": 18802,
    "BSTAR": 0.00020669000000000001,
    "MEAN_MOTION_DOT": 3.004e-05,
    "MEAN_MOTION_DDOT": 0.0,
    "TLE_LINE1": "1 52864U 22062AL  25315.10033566  .00003004  00000+0  20669-3 0  9999",
    "TLE_LINE2": "2 52864  53.2136 196.4911 0001290  76.1871 283.9265 15.08852033188029",
    "COMMENT": "Grouped by shell and plane from TLE"
  },
  {
    "OBJECT_NAME": "STARLINK-4274",
    "OBJECT_ID": "22062AM",
    "EPOCH": "2025-11-11T02:03:16.785216",
    "MEAN_MOTION": 15.08851201,
    "ECCENTRICITY": 0.0001508,
    "INCLINATION": 53.2159,
    "RA_OF_ASC_NODE": 196.5565,
    "ARG_OF_PERICENTER": 80.9254,
    "MEAN_ANOMALY": 279.1909,
    "EPHEMERIS_TYPE": 0,
    "CLASSIFICATION_TYPE": "U",
    "NORAD_CAT_ID": 52865,
    "ELEMENT_SET_NO": 999,
    "REV_AT_EPOCH": 18802,
    "BSTAR": 0.00017754,
    "MEAN_MOTION_DOT": 2.539e-05,
    "MEAN_MOTION_DDOT": 0.0,
    "TLE_LINE1": "1 52865U 22062AM  25315.08561094  .00002539  00000+0  17754-3 0  9992",
    "TLE_LINE2": "2 52865  53.2159 196.5565 0001508  80.9254 279.1909 15.08851201188029",
    "COMMENT": "Grouped by shell and plane from TLE"
  },
  {
    "OBJECT_NAME": "STARLINK-4272",
    "OBJECT_ID": "22062AN",
    "EPOCH": "2025-11-11T02:13:53.062464",
    "MEAN_MOTION": 15.0884251,
    "ECCENTRICITY": 0.0001458,
    "INCLINATION": 53.2177,
    "RA_OF_ASC_NODE": 196.5219,
    "ARG_OF_PERICENTER": 86.4403,
    "MEAN_ANOMALY": 273.6756,
    "EPHEMERIS_TYPE": 0,
    "CLASSIFICATION_TYPE": "U",
    "NORAD_CAT_ID": 52866,
    "ELEMENT_SET_NO": 999,
    "REV_AT_EPOCH": 18802,
    "BSTAR": 0.000164,
    "MEAN_MOTION_DOT": 2.323e-05,
    "MEAN_MOTION_DDOT": 0.0,
    "TLE_LINE1": "1 52866U 22062AN  25315.09297526  .00002323  00000+0  16400-3 0  9998",
    "TLE_LINE2": "2 52866  53.2177 196.5219 0001458  86.4403 273.6756 15.08842510188029",
    "COMMENT": "Grouped by shell and plane from TLE"
  },
  {
    "OBJECT_NAME": "STARLINK-4126",
    "OBJECT_ID": "22062AP",
    "EPOCH": "2025-11-11T01:52:41.335680",
    "MEAN_MOTION": 15.08845824,
    "ECCENTRICITY": 0.0001338,
    "INCLINATION": 53.216,
    "RA_OF_ASC_NODE": 196.5898,
    "ARG_OF_PERICENTER": 85.0254,
    "MEAN_ANOMALY": 275.0891,
    "EPHEMERIS_TYPE": 0,
    "CLASSIFICATION_TYPE": "U",
    "NORAD_CAT_ID": 52867,
    "ELEMENT_SET_NO": 999,
    "REV_AT_EPOCH": 18802,
    "BSTAR": 0.00011125000000000001,
    "MEAN_MOTION_DOT": 1.483e-05,
    "MEAN_MOTION_DDOT": 0.0,
    "TLE_LINE1": "1 52867U 22062AP  25315.07825620  .00001483  00000+0  11125-3 0  9994",
    "TLE_LINE2": "2 52867  53.2160 196.5898 0001338  85.0254 275.0891 15.08845824188028",
    "COMMENT": "Grouped by shell and plane from TLE"
  },
  {
    "OBJECT_NAME": "STARLINK-4261",
    "OBJECT_ID": "22062AQ",
    "EPOCH": "2025-11-11T02:08:36.487680",
    "MEAN_MOTION": 15.08831508,
    "ECCENTRICITY": 0.0001811,
    "INCLINATION": 53.2158,
    "RA_OF_ASC_NODE": 196.5681,
    "ARG_OF_PERICENTER": 90.7287,
    "MEAN_ANOMALY": 269.3913,
    "EPHEMERIS_TYPE": 0,
    "CLASSIFICATION_TYPE": "U",
    "NORAD_CAT_ID": 52868,
    "ELEMENT_SET_NO": 999,
    "REV_AT_EPOCH": 18802,
    "BSTAR": 0.0,
    "MEAN_MOTION_DOT": -9.1e-06,
    "MEAN_MOTION_DDOT": 0.0,
    "TLE_LINE1": "1 52868U 22062AQ  25315.08931120 -.00000910  00000+0 -39077-4 0  9992",
    "TLE_LINE2": "2 52868  53.2158 196.5681 0001811  90.7287 269.3913 15.08831508188026",
    "COMMENT": "Grouped by shell and plane from TLE"
  },
  {
    "OBJECT_NAME": "STARLINK-4195",
    "OBJECT_ID": "22062AS",
    "EPOCH": "2025-11-10T10:04:08.436576",
    "MEAN_MOTION": 15.08852111,
    "ECCENTRICITY": 0.0001284,
    "INCLINATION": 53.2147,
    "RA_OF_ASC_NODE": 199.5465,
    "ARG_OF_PERICENTER": 79.1903,
    "MEAN_ANOMALY": 280.9234,
    "EPHEMERIS_TYPE": 0,
    "CLASSIFICATION_TYPE": "U",
    "NORAD_CAT_ID": 52870,
    "ELEMENT_SET_NO": 999,
    "REV_AT_EPOCH": 18792,
    "BSTAR": 0.00039351,
    "MEAN_MOTION_DOT": 5.982e-05,
    "MEAN_MOTION_DDOT": 0.0,
    "TLE_LINE1": "1 52870U 22062AS  25314.41954209  .00005982  00000+0  39351-3 0  9990",
    "TLE_LINE2": "2 52870  53.2147 199.5465 0001284  79.1903 280.9234 15.08852111187926",
    "COMMENT": "Grouped by shell and plane from TLE"
  },
  {
    "OBJECT_NAME": "STARLINK-4171",
    "OBJECT_ID": "22062BA",
    "EPOCH": "2025-11-10T01:15:32.837760",
    "MEAN_MOTION": 15.08837103,
    "ECCENTRICITY": 0.0001462,
    "INCLINATION": 53.2161,
    "RA_OF_ASC_NODE": 191.1946,
    "ARG_OF_PERICENTER": 87.1548,
    "MEAN_ANOMALY": 272.9612,
    "EPHEMERIS_TYPE": 0,
    "CLASSIFICATION_TYPE": "U",
    "NORAD_CAT_ID": 52878,
    "ELEMENT_SET_NO": 999,
    "REV_AT_EPOCH": 18800,
    "BSTAR": 6.1478e-05,
    "MEAN_MOTION_DOT": 6.91e-06,
    "MEAN_MOTION_DDOT": 0.0,
    "TLE_LINE1": "1 52878U 22062BA  25314.05246340  .00000691  00000+0  61478-4 0  9996",
    "TLE_LINE2": "2 52878  53.2161 191.1946 0001462  87.1548 272.9612 15.08837103188009",
    "COMMENT": "Grouped by shell and plane from TLE"
  },
  {
    "OBJECT_NAME": "STARLINK-4622",
    "OBJECT_ID": "22105A",
    "EPOCH": "2025-11-11T04:53:22.786080",
    "MEAN_MOTION": 15.01225813,
    "ECCENTRICITY": 0.0004653,
    "INCLINATION": 97.6017,
    "RA_OF_ASC_NODE": 194.2172,
    "ARG_OF_PERICENTER": 69.804,
    "MEAN_ANOMALY": 290.3685,
    "EPHEMERIS_TYPE": 0,
    "CLASSIFICATION_TYPE": "U",
    "NORAD_CAT_ID": 53648,
    "ELEMENT_SET_NO": 999,
    "REV_AT_EPOCH": 17546,
    "BSTAR": 0.00032561,
    "MEAN_MOTION_DOT": 4.123e-05,
    "MEAN_MOTION_DDOT": 0.0,
    "TLE_LINE1": "1 53648U 22105A   25315.20373595  .00004123  00000+0  32561-3 0  9995",
    "TLE_LINE2": "2 53648  97.6017 194.2172 0004653  69.8040 290.3685 15.01225813175463",
    "COMMENT": "Grouped by shell and plane from TLE"
  },
  {
    "OBJECT_NAME": "STARLINK-4386",
    "OBJECT_ID": "22105B",
    "EPOCH": "2025-11-11T05:10:41.186208",
    "MEAN_MOTION": 15.05661658,
    "ECCENTRICITY": 0.0001863,
    "INCLINATION": 97.6004,
    "RA_OF_ASC_NODE": 194.4974,
    "ARG_OF_PERICENTER": 85.8495,
    "MEAN_ANOMALY": 274.2945,
    "EPHEMERIS_TYPE": 0,
    "CLASSIFICATION_TYPE": "U",
    "NORAD_CAT_ID": 53649,
    "ELEMENT_SET_NO": 999,
    "REV_AT_EPOCH": 17547,
    "BSTAR": 2.175e-05,
    "MEAN_MOTION_DOT": 2.53e-06,
    "MEAN_MOTION_DDOT": 0.0,
    "TLE_LINE1": "1 53649U 22105B   25315.21575447  .00000253  00000+0  21750-4 0  9996",
    "TLE_LINE2": "2 53649  97.6004 194.4974 0001863  85.8495 274.2945 15.05661658175470",
    "COMMENT": "Grouped by shell and plane from TLE"
  },
  {
    "OBJECT_NAME": "STARLINK-4380",
    "OBJECT_ID": "22105C",
    "EPOCH": "2025-11-11T06:23:59.755776",
    "MEAN_MOTION": 15.01261727,
    "ECCENTRICITY": 0.0004589,
    "INCLINATION": 97.6013,
    "RA_OF_ASC_NODE": 194.2731,
    "ARG_OF_PERICENTER": 52.9088,
    "MEAN_ANOMALY": 307.2555,
    "EPHEMERIS_TYPE": 0,
    "CLASSIFICATION_TYPE": "U",
    "NORAD_CAT_ID": 53650,
    "ELEMENT_SET_NO": 999,
    "REV_AT_EPOCH": 17546,
    "BSTAR": 4.2161e-05,
    "MEAN_MOTION_DOT": 4.83e-06,
    "MEAN_MOTION_DDOT": 0.0,
    "TLE_LINE1": "1 53650U 22105C   25315.26666384  .00000483  00000+0  42161-4 0  9998",
    "TLE_LINE2": "2 53650  97.6013 194.2731 0004589  52.9088 307.2555 15.01261727175464",
    "COMMENT": "Grouped by shell and plane from TLE"
  },
  {
    "OBJECT_NAME": "STARLINK-4388",
    "OBJECT_ID": "22105D",
    "EPOCH": "2025-11-11T05:34:37.811712",
    "MEAN_MOTION": 15.05643622,
    "ECCENTRICITY": 0.0002623,
    "INCLINATION": 97.6015,
    "RA_OF_ASC_NODE": 194.4681,
    "ARG_OF_PERICENTER": 70.6928,
    "MEAN_ANOMALY": 289.4583,
    "EPHEMERIS_TYPE": 0,
    "CLASSIFICATION_TYPE": "U",
    "NORAD_CAT_ID": 53651,
    "ELEMENT_SET_NO": 999,
    "REV_AT_EPOCH": 17547,
    "BSTAR": 0.0,
    "MEAN_MOTION_DOT": -6.16e-06,
    "MEAN_MOTION_DDOT": 0.0,
    "TLE_LINE1": "1 53651U 22105D   25315.23238208 -.00000616  00000+0 -38466-4 0  9999",
    "TLE_LINE2": "2 53651  97.6015 194.4681 0002623  70.6928 289.4583 15.05643622175475",
    "COMMENT": "Grouped by shell and plane from TLE"
  }
]